#dP2021  3 26 12  0  0.00000000      96 __u+U ITR00 EXT  IAC
## 2150 475200.00000000   900.00000000 59299 0.5000000000000
+  117   C06C07C08C09C10C11C12C13C14C16C19C20C21C22C23C24C25
+        C26C27C28C29C30C32C33C34C35C36C37C38C39C40C41C42C43
+        C44C45C46E01E02E03E04E05E07E08E09E11E12E13E14E15E18
+        E19E21E24E25E26E27E30E31E33E36G01G02G03G04G05G06G07
+        G08G09G10G11G12G13G14G15G16G17G18G19G20G21G22G23G24
+        G25G26G27G28G29G30G31G32J01J02J03R01R02R03R04R05R07
+        R08R09R11R12R13R14R15R16R17R18R19R20R21R22R24  0  0
++        11  8  8 12 10 11 11  9  9  9  9  9  8  8  9  9  9
++         8  9  7 10  8 10  8 10  8  9  9 11 11 11  8  8  9
++        10  9  9  7  9  7  7  8  7  7  8  8  9  7  7  8  7
++         8  8  7  6  8  8  8  8  8  8  8  8  8  7  8  7  7
++         7  7  8  8  7  8  6  8  6  9  7  7  7  7  9  9  6
++         8  7  8  8  8  6  9  7 10  8  9 10  8  8  8  8  9
++         8  8  8  8  8  7  9  8  7  8  9  7  7  9  8  0  0
%c M  cc GPS ccc cccc cccc cccc cccc ccccc ccccc ccccc ccccc
%c cc cc ccc ccc cccc cccc cccc cccc ccccc ccccc ccccc ccccc
%f  0.0000000  0.000000000  0.00000000000  0.000000000000000
%f  0.0000000  0.000000000  0.00000000000  0.000000000000000
%i    0    0    0    0      0      0      0      0         0
%i    0    0    0    0      0      0      0      0         0
/* IAC                                ULTRA-RAPID PREDICTION
/* S/V CLOCKS ARE ALIGNED TO GNSS TIME                      
/* G:C1WC2W R:C1PC2P E:C1XC5X C:C2IC6I J:C1CC2S             
/* PCV:IGS14_2134 OL/AL:FES2004  NONE     YN ORB:CoN CLK:CoN
*  2021 03 26 17 30  0.00000000
PC06 -13004.826649  37735.613776  14770.283245    215.231047
PC07 -13857.679093  22544.609764 -32580.983656    -56.653442
PC08 -25868.182830  26787.225041  19525.170639   -896.779817
PC09  -4394.175491  42170.076844    -39.043553    640.759613
PC10   2027.809558  28823.465954 -30380.759745    -65.808018
PC11 -14851.253434  -3543.110215 -23297.220896   -845.995414
PC12  -6785.558865 -21558.199809 -16341.942568    894.697071
PC13 -11945.144218  28055.379040  29114.204939    196.177457
PC14 -23732.528373 -10329.084295  10537.055281    308.362342
PC16  -9690.053969  39676.782012  11007.454637   -752.737919
PC19  21361.412620   1789.131745 -17826.871962    775.873078
PC20  22515.464760  16185.891684  -2965.032248   -938.277799
PC21 -10247.569775 -21618.303005 -14362.085975   -906.198450
PC22   7762.404718 -14104.847940 -22787.252958   -933.960756
PC23 -18357.573757  16412.035506 -13127.340423   -880.612956
PC24 -19182.004004  -7507.394671  18801.896281   -794.130014
PC25 -26641.696965   7505.024009   3458.742081   -942.339738
PC26  -1894.813453 -16428.839180  22471.314159    929.905503
PC27    671.465657  26607.302233   8408.161192    505.095268
PC28 -11169.209402  23856.881882  -9208.070240    -93.760467
PC29  16176.675704  -7752.745067  21368.218558    370.304516
PC30  12411.681205  13804.389996  20840.237132    455.426970
PC32  10344.409483  21548.187573  14413.245911   -922.241544
PC33 -21444.198931  -1717.627651  17796.410546   -944.148828
PC34 -12742.443156 -13067.293480 -21109.372037   -710.131985
PC35  10525.234621 -24021.441264   9474.778062   -356.434838
PC36  26834.279885  -6662.177137  -3772.456636   -737.355267
PC37    599.236004  16693.155007 -22339.348604   -883.220947
PC38 -22219.136984  28804.952945  21254.384801    138.292757
PC39  -6253.739583  40546.522074  10055.227516     29.750310
PC40     -7.830013  25444.311959 -33587.093697    144.890134
PC41  -8053.345957  13965.464346  22831.422957   -935.638568
PC42 -22363.322091 -16545.549998   2364.616003   -934.547664
PC43 -16355.207627   7145.231754 -21464.995024   -657.150026
PC44  -1506.607058 -26603.635747  -8230.085342    105.772387
PC45  18296.780500 -16411.971861  13234.696334    397.134267
PC46  19925.981447   6728.189926 -18359.374740    345.040137
PE01  14491.057808  15764.195399 -20444.557854  -1073.769943
PE02 -14588.157662 -15731.164530  20378.340279    207.756467
PE03 -12645.542653 -26706.688395   1857.512970   -413.210073
PE04  19407.515764  12974.542419 -18190.822754   -737.067619
PE05   1652.885753 -24961.151841 -15820.086230   -293.885834
PE07 -14847.971026   8675.819445  24100.488026   -517.723071
PE08 -19400.260765 -12610.239653  18471.820524   6027.236274
PE09  14571.617251  -8887.709506 -24178.371237   5721.797717
PE11  21615.452954 -16955.023817  10989.406856   6163.365274
PE12  17685.772640   2156.299413  23637.043273   5290.876734
PE13 -21597.157969  16746.987805 -11378.159763    414.118725
PE14  12364.657093  16184.622457  12281.043639  -1375.297186
PE15 -17664.167340  -1981.890054 -23661.043593    822.672239
PE18 -19524.336794 -14466.258080 -21497.131258  -1504.155928
PE19  11252.929670  27377.973146    321.970343    236.597130
PE21  -7060.944260  15535.444793 -24190.856352   -655.805076
PE24  25770.906805  -5740.474524  13392.693464   -813.620404
PE25   7291.952941 -15480.692007  24153.733561   -529.414169
PE26 -12359.749906  25603.174144   8256.172347   1996.934573
PE27 -25288.081723   6310.513908 -14020.925458      2.148526
PE30 -28233.217500  -7221.893232   5119.015455   3075.522061
PE31  28541.716455   6562.550711  -4321.462357   -479.549559
PE33   3332.923420  19530.674188  22004.580001   -466.912721
PE36  12808.761481 -25576.506958  -7576.354206   -185.225507
PG01  11143.608683 -20546.368007 -12523.011727    731.986248
PG02 -21276.523548  12783.886057  -8844.796086   -589.864103
PG03   2059.714093 -15145.698858 -21807.814315   -119.064254
PG04   2483.170414 -24763.864910  -9195.213304   -188.445153
PG05 -19546.238287   6461.874950  16735.541658    -37.313048
PG06 -19084.050805    357.959572 -18432.505551      3.033731
PG07  -2852.173001 -16846.861259  20552.148397    102.506428
PG08   7081.790127 -19751.499755  16094.451477    -15.197108
PG09  -6340.028040 -25751.775165   1116.249987   -334.203483
PG10  23265.491873  11915.504141   5566.536415    -89.109892
PG11   8201.672051 -25434.253973  -1922.184161     12.062815
PG12  -6618.054196  13525.863925 -22130.231720    -19.395394
PG13 -13133.908905  11058.824314  20095.751829    112.428595
PG14 -22071.648554 -13399.602772   6256.214891     99.246968
PG15  -5226.334844  20770.564983  15119.379127   -160.471252
PG16  21843.822737  -1503.282153  15111.387103   -300.001447
PG17 -12933.605811 -16470.088864 -15908.506740    416.137770
PG18   5592.590836  14601.888804  21456.118378    351.213288
PG19 -14756.590550  -7938.238801 -20915.866235    -21.207350
PG20  10514.270110  15864.669832  18582.578427    523.811968
PG21  16444.457543 -20107.083020  -3453.686457    106.200368
PG22  11901.117766 -12400.480195 -20007.267491   -652.012108
PG23  15469.883234  15667.948266  14863.746541    116.330609
PG24 -14030.418596  21293.103949  -6902.169918      0.566259
PG25   8630.578269  16907.000118 -18950.436021    106.469562
PG26  25825.282371   3068.852844   5998.969402     63.527710
PG27  13210.461525  -7865.541617  21440.958347   -101.276210
PG28 -22469.779201 -13415.997698   4430.276876    596.298541
PG29   4518.174582  26073.555983   1959.978947   -318.903985
PG30 -14575.903315  -7829.743592  20865.809179   -404.040213
PG31  21022.872587  -2407.940060 -16412.823058   -107.910653
PG32  14954.111612  14108.137133 -16804.868077     21.735888
PJ01 -25468.339144  22170.986910  30225.483405   -358.685404
PJ02 -33117.125699  15719.576574 -16298.208499      4.123423
PJ03 -22235.291679  30761.412068 -13754.438637     -2.319987
PR01  11407.038331  -3371.532217 -22557.926591     76.945259
PR02  -4692.972218 -18498.168367 -16848.361124    472.338746
PR03 -15734.789602 -20017.509962   -961.873058     33.084130
PR04 -17635.713200 -10334.063462  15287.145152     79.602344
PR05  -9733.874526   5124.471560  23027.618474     68.841817
PR07  15949.627223  19932.656668    443.318294    -42.570049
PR08  17686.829491  10310.674903 -15171.018526    -58.179807
PR09  -5957.770482  11919.765139 -21750.515923    -15.196935
PR11  24298.316764   -667.020138  -7711.695591      1.904105
PR12  21683.553186  -8621.062553  10352.671983    215.743340
PR13   6540.579054 -11685.299293  21689.411102    -52.548463
PR14 -13088.068036  -7820.031994  20459.390961     62.436932
PR15 -24433.796811    463.390046   7318.419222    104.703005
PR16 -20788.878758   9503.006304 -11209.469563    -13.029820
PR17  -2831.067552 -16740.006411 -19040.214133    411.188803
PR18 -10934.464852   -407.159904 -23031.159800     71.090112
PR19 -13700.474526  15065.735688 -15362.827533   -137.295161
PR20  -8225.542728  23878.070738   3775.998383    -46.069138
PR21   3420.182521  15758.367614  19759.130457   -197.240263
PR22  11203.728058   -560.657264  22885.130103   -104.630039
PR24   7457.656650 -23990.261282  -4419.032021     36.472464
EOF
